NORAD_CAT_ID,OBJECT_NAME,OBJECT_TYPE,EPOCH,MEAN_MOTION,ECCENTRICITY,INCLINATION,RA_OF_ASC_NODE,ARG_OF_PERICENTER,MEAN_ANOMALY,BSTAR,MEAN_MOTION_DOT,MEAN_MOTION_DDOT,TLE_LINE0,TLE_LINE1,TLE_LINE2,SEMIMAJOR_AXIS,PERIOD,APOGEE,PERIGEE,DECAYED
54803.0,STARLINK-5430,PAYLOAD,2023-01-08 14:00:01,15.66538924,0.0001092,53.2169,198.4333,70.7549,309.2755,-0.012631,-0.01209652,0.0,0 STARLINK-5430,1 54803U 22175AX  23008.58334491 -.01209652  00000-0 -12631-1 0  9998,2 54803  53.2169 198.4333 0001092  70.7549 309.2755 15.66538924  1307,6746.953,91.922,369.555,368.082,0.0
54803.0,STARLINK-5430,PAYLOAD,2023-01-08 22:00:00,15.65674032,0.0001144,53.2172,196.8031,82.2225,18.1947,-0.0129449999999999,-0.01198246,0.0,0 STARLINK-5430,1 54803U 22175AX  23008.91667824 -.01198246  00000-0 -12945-1 0  9998,2 54803  53.2172 196.8031 0001144  82.2225  18.1947 15.65674032  1304,6749.438,91.973,372.075,370.531,0.0
54803.0,STARLINK-5430,PAYLOAD,2023-01-09 14:00:01,15.63965173,0.0001255,53.2166,193.5429,62.4147,195.6796,-0.013944,-0.01204536,0.0,0 STARLINK-5430,1 54803U 22175AX  23009.58334491 -.01204536  00000-0 -13944-1 0  9993,2 54803  53.2166 193.5429 0001255  62.4147 195.6796 15.63965173  1308,6754.354,92.074,377.066,375.371,0.0
54803.0,STARLINK-5430,PAYLOAD,2023-01-09 16:00:00,15.63741626,0.0001233,53.2171,193.1365,47.4448,320.0744,-0.013922,-0.01193212,0.0,0 STARLINK-5430,1 54803U 22175AX  23009.66667824 -.01193212  00000-0 -13922-1 0  9995,2 54803  53.2171 193.1365 0001233  47.4448 320.0744 15.63741626  3339,6754.996999999999,92.087,377.695,376.029,0.0
54803.0,STARLINK-5430,PAYLOAD,2023-01-09 22:00:00,15.63099089,9.76e-05,53.2176,191.9184,83.5028,251.8893,-0.014261,-0.01191591,0.0,0 STARLINK-5430,1 54803U 22175AX  23009.91667824 -.01191591  00000-0 -14261-1 0  9998,2 54803  53.2176 191.9184 0000976  83.5028 251.8893 15.63099089  1307,6756.848000000001,92.125,379.3730000000001,378.054,0.0
54803.0,STARLINK-5430,PAYLOAD,2023-01-10 14:00:01,15.61391041,0.000131,53.2167,188.671,59.5375,67.3515,-0.015376,-0.01200554,0.0,0 STARLINK-5430,1 54803U 22175AX  23010.58334491 -.01200554  00000-0 -15376-1 0  9992,2 54803  53.2167 188.6710 0001310  59.5375  67.3515 15.61391041  3478,6761.775,92.225,384.526,382.754,0.0
54803.0,STARLINK-5430,PAYLOAD,2023-01-10 22:00:00,15.6034514,0.0002427,53.2138,187.0584,82.4421,118.7823,-0.012261,-0.00928776,0.0,0 STARLINK-5430,1 54803U 22175AX  23010.91667824 -.00928776  00000-0 -12261-1 0  9990,2 54803  53.2138 187.0584 0002427  82.4421 118.7823 15.60345140  1306,6764.795999999999,92.287,388.30300000000005,385.02,0.0
54803.0,STARLINK-5430,PAYLOAD,2023-01-11 14:00:01,15.58815627,0.0001095999999999,53.2175,183.8178,67.9777,278.4361,-0.0168819999999999,-0.0119407,0.0,0 STARLINK-5430,1 54803U 22175AX  23011.58334491 -.01194070  00000-0 -16882-1 0  9991,2 54803  53.2175 183.8178 0001096  67.9777 278.4361 15.58815627  3631,6769.221,92.378,391.828,390.344,0.0
54803.0,STARLINK-5430,PAYLOAD,2023-01-11 22:00:00,15.57954585,0.0001199,53.2173,182.2058,59.5563,357.9723,-0.017334,-0.01187304,0.0,0 STARLINK-5430,1 54803U 22175AX  23011.91667824 -.01187304  00000-0 -17334-1 0  9992,2 54803  53.2173 182.2058 0001199  59.5563 357.9723 15.57954585  1306,6771.715,92.429,394.392,392.768,0.0
54803.0,STARLINK-5430,PAYLOAD,2023-01-12 06:00:02,15.5709545,0.0001243,53.2173,180.5925,66.1043,61.5757,-0.01786,-0.01184564,0.0,0 STARLINK-5430,1 54803U 22175AX  23012.25002315 -.01184564  00000-0 -17860-1 0  9997,2 54803  53.2173 180.5925 0001243  66.1043  61.5757 15.57095450  3738,6774.205,92.48,396.912,395.228,0.0
54803.0,STARLINK-5430,PAYLOAD,2023-01-12 22:00:00,15.55368365,0.0001122,53.2135,177.3838,77.2647,187.4647,-0.018569,-0.01157424,0.0,0 STARLINK-5430,1 54803U 22175AX  23012.91667824 -.01157424  00000-0 -18569-1 0  9994,2 54803  53.2135 177.3838 0001122  77.2647 187.4647 15.55368365  1305,6779.219,92.583,401.845,400.323,0.0
54803.0,STARLINK-5430,PAYLOAD,2023-01-13 06:00:00,15.54497833,9.65e-05,53.2151,175.7742,85.1118,246.6231,-0.018988,-0.01147054,0.0,0 STARLINK-5430,1 54803U 22175AX  23013.25001157 -.01147054  00000-0 -18988-1 0  9996,2 54803  53.2151 175.7742 0000965  85.1118 246.6231 15.54497833  3899,6781.75,92.634,404.269,402.96,0.0
54803.0,STARLINK-5430,PAYLOAD,2023-01-13 14:00:01,15.5369506,0.0001104,53.2147,174.1729,75.093,322.5889,-0.021209,-0.01253528,0.0,0 STARLINK-5430,1 54803U 22175AX  23013.58334491 -.01253528  00000-0 -21209-1 0  9996,2 54803  53.2147 174.1729 0001104  75.0930 322.5889 15.53695060  1306,6784.085999999999,92.682,406.7,405.202,0.0
54803.0,STARLINK-5430,PAYLOAD,2023-01-13 22:00:00,15.52795038,0.0001131,53.2137,172.574,60.8546,41.7683,-0.020365,-0.01154963,0.0,0 STARLINK-5430,1 54803U 22175AX  23013.91667824 -.01154963  00000-0 -20365-1 0  9997,2 54803  53.2137 172.5740 0001131  60.8546  41.7683 15.52795038  3999,6786.706999999999,92.736,409.339,407.804,0.0
54803.0,STARLINK-5430,PAYLOAD,2023-01-14 14:00:01,15.51110041,0.0001242999999999,53.2135,169.3771,86.6836,142.7143,-0.022917,-0.01235016,0.0,0 STARLINK-5430,1 54803U 22175AX  23014.58334491 -.01235016  00000-0 -22917-1 0  9996,2 54803  53.2135 169.3771 0001243  86.6836 142.7143 15.51110041  4096,6791.621,92.837,414.33,412.642,0.0
54803.0,STARLINK-5430,PAYLOAD,2023-01-15 14:00:01,15.48535794,0.000106,53.2128,164.5984,86.0136,325.8279,-0.025003,-0.01229853,0.0,0 STARLINK-5430,1 54803U 22175AX  23015.58334491 -.01229853  00000-0 -25003-1 0  9998,2 54803  53.2128 164.5984 0001060  86.0136 325.8279 15.48535794  1302,6799.146,92.991,421.731,420.29,0.0
54803.0,STARLINK-5430,PAYLOAD,2023-01-15 22:00:01,15.47680303,0.0001273,53.2124,163.0102,64.6157,46.0388,-0.025387,-0.01213405,0.0,0 STARLINK-5430,1 54803U 22175AX  23015.91668981 -.01213405  00000-0 -25387-1 0  9990,2 54803  53.2124 163.0102 0001273  64.6157  46.0388 15.47680303  4307,6801.651,93.042,424.382,422.65,0.0
54803.0,STARLINK-5430,PAYLOAD,2023-01-16 14:00:01,15.45958676,0.0001217,53.2127,159.838,86.0801,138.9344,-0.0270639999999999,-0.01217799,0.0,0 STARLINK-5430,1 54803U 22175AX  23016.58334491 -.01217799  00000-0 -27064-1 0  9994,2 54803  53.2127 159.8380 0001217  86.0801 138.9344 15.45958676  1302,6806.7,93.146,429.393,427.736,0.0
54803.0,STARLINK-5430,PAYLOAD,2023-01-16 20:00:01,15.45290267,0.000126,53.2128,158.6516,72.4087,104.454,-0.026232,-0.01158926,0.0,0 STARLINK-5430,1 54803U 22175AX  23016.83334491 -.01158926  00000-0 -26232-1 0  9994,2 54803  53.2128 158.6516 0001260  72.4087 104.4540 15.45290267  4443,6808.661999999999,93.186,431.385,429.669,0.0
54803.0,STARLINK-5430,PAYLOAD,2023-01-17 14:00:01,15.43382238,0.0001177,53.2131,155.0959,74.9333,313.9871,-0.0293709999999999,-0.01210485,0.0,0 STARLINK-5430,1 54803U 22175AX  23017.58334491 -.01210485  00000-0 -29371-1 0  9993,2 54803  53.2131 155.0959 0001177  74.9333 313.9871 15.43382238  4562,6814.273,93.302,436.94,435.336,0.0
54803.0,STARLINK-5430,PAYLOAD,2023-01-17 22:00:00,15.42546541,0.000121,53.2129,153.5198,68.9456,12.5364,-0.030822,-0.01232581,0.0,0 STARLINK-5430,1 54803U 22175AX  23017.91667824 -.01232581  00000-0 -30822-1 0  9993,2 54803  53.2129 153.5198 0001210  68.9456  12.5364 15.42546541  1300,6816.734,93.352,439.423,437.774,0.0
54803.0,STARLINK-5430,PAYLOAD,2023-01-18 14:00:01,15.40798243,0.0001369,53.2132,150.3724,82.1479,101.4084,-0.031452,-0.01190163,0.0,0 STARLINK-5430,1 54803U 22175AX  23018.58334491 -.01190163  00000-0 -31452-1 0  9997,2 54803  53.2132 150.3724 0001369  82.1479 101.4084 15.40798243  4713,6821.889,93.458,444.6880000000001,442.82,0.0
54803.0,STARLINK-5430,PAYLOAD,2023-01-18 22:00:00,15.39983497,0.0001279,53.2128,148.8022,80.4721,152.5511,-0.034107,-0.01249893,0.0,0 STARLINK-5430,1 54803U 22175AX  23018.91667824 -.01249893  00000-0 -34107-1 0  9998,2 54803  53.2128 148.8022 0001279  80.4721 152.5511 15.39983497  1301,6824.295,93.507,447.033,445.287,0.0
54803.0,STARLINK-5430,PAYLOAD,2023-01-19 06:00:00,15.3907418,0.0001255,53.2129,147.2321,93.7632,187.7301,-0.032338,-0.01158559,0.0,0 STARLINK-5430,1 54803U 22175AX  23019.25001157 -.01158559  00000-0 -32338-1 0  9999,2 54803  53.2129 147.2321 0001255  93.7632 187.7301 15.39074180  4826,6826.983,93.563,449.705,447.991,0.0
54803.0,STARLINK-5430,PAYLOAD,2023-01-19 14:00:01,15.38229323,0.000122,53.2129,145.6675,82.0155,246.9009,-0.0342709999999999,-0.01190948,0.0,0 STARLINK-5430,1 54803U 22175AX  23019.58334491 -.01190948  00000-0 -34271-1 0  9991,2 54803  53.2129 145.6675 0001220  82.0155 246.9009 15.38229323  1306,6829.482,93.614,452.181,450.514,0.0
54803.0,STARLINK-5430,PAYLOAD,2023-01-19 22:00:00,15.37408097,0.0001125999999999,53.2126,144.1032,70.2132,305.0845,-0.03694,-0.01244123,0.0,0 STARLINK-5430,1 54803U 22175AX  23019.91667824 -.01244123  00000-0 -36940-1 0  9997,2 54803  53.2126 144.1032 0001126  70.2132 305.0845 15.37408097  4925,6831.914000000001,93.664,454.548,453.01,0.0
54803.0,STARLINK-5430,PAYLOAD,2023-01-20 14:00:01,15.35659636,0.0001394,53.2129,140.981,73.8805,31.1283,-0.037308,-0.01192342,0.0,0 STARLINK-5430,1 54803U 22175AX  23020.58334491 -.01192342  00000-0 -37308-1 0  9997,2 54803  53.2129 140.9810 0001394  73.8805  31.1283 15.35659636  5029,6837.099,93.771,459.917,458.011,0.0
54803.0,STARLINK-5430,PAYLOAD,2023-01-20 16:00:00,15.35440418,0.0001403,53.213,140.5915,77.4144,128.5152,-0.037043,-0.01177025,0.0,0 STARLINK-5430,1 54803U 22175AX  23020.66667824 -.01177025  00000-0 -37043-1 0  9992,2 54803  53.2130 140.5915 0001403  77.4144 128.5152 15.35440418  1309,6837.75,93.784,460.574,458.655,0.0
54803.0,STARLINK-5430,PAYLOAD,2023-01-21 14:00:01,15.33081163,0.0001396999999999,53.2131,136.3126,93.7654,138.0674,-0.040095,-0.01180988,0.0,0 STARLINK-5430,1 54803U 22175AX  23021.58334491 -.01180988  00000-0 -40095-1 0  9998,2 54803  53.2131 136.3126 0001397  93.7654 138.0674 15.33081163  5187,6844.763000000001,93.928,467.584,465.672,0.0
